CCSDS_OMM_VERS = 2.0
CREATION_DATE  = 
ORIGINATOR     = 

OBJECT_NAME    = STARLINK-36673
OBJECT_ID      = 2026-022N
CENTER_NAME    = EARTH
REF_FRAME      = TEME
TIME_SYSTEM    = UTC
MEAN_ELEMENT_THEORY = SGP/SGP4

EPOCH          = 2026-02-12T20:00:01.999008
MEAN_MOTION    = 15.86648574
ECCENTRICITY   = .0001436
INCLINATION    = 97.2817
RA_OF_ASC_NODE = 76.5757
ARG_OF_PERICENTER = 79.5478
MEAN_ANOMALY   = 344.9045

EPHEMERIS_TYPE = 0
CLASSIFICATION_TYPE = U
NORAD_CAT_ID   = 67660
ELEMENT_SET_NO = 999
REV_AT_EPOCH   = 289
BSTAR          = -.76746E-2
MEAN_MOTION_DOT = -.168622E-1
MEAN_MOTION_DDOT = 0

CCSDS_OMM_VERS = 2.0
CREATION_DATE  = 
ORIGINATOR     = 

OBJECT_NAME    = STARLINK-36674
OBJECT_ID      = 2026-022P
CENTER_NAME    = EARTH
REF_FRAME      = TEME
TIME_SYSTEM    = UTC
MEAN_ELEMENT_THEORY = SGP/SGP4

EPOCH          = 2026-02-12T20:00:01.999008
MEAN_MOTION    = 15.86816517
ECCENTRICITY   = .0001367
INCLINATION    = 97.2819
RA_OF_ASC_NODE = 76.5777
ARG_OF_PERICENTER = 75.7242
MEAN_ANOMALY   = 352.5397

EPHEMERIS_TYPE = 0
CLASSIFICATION_TYPE = U
NORAD_CAT_ID   = 67661
ELEMENT_SET_NO = 999
REV_AT_EPOCH   = 289
BSTAR          = -.76439E-2
MEAN_MOTION_DOT = -.1692414E-1
MEAN_MOTION_DDOT = 0

CCSDS_OMM_VERS = 2.0
CREATION_DATE  = 
ORIGINATOR     = 

OBJECT_NAME    = STARLINK-36700
OBJECT_ID      = 2026-022Q
CENTER_NAME    = EARTH
REF_FRAME      = TEME
TIME_SYSTEM    = UTC
MEAN_ELEMENT_THEORY = SGP/SGP4

EPOCH          = 2026-02-12T20:00:01.999008
MEAN_MOTION    = 15.87233956
ECCENTRICITY   = .0001503
INCLINATION    = 97.2814
RA_OF_ASC_NODE = 76.5814
ARG_OF_PERICENTER = 73.6170
MEAN_ANOMALY   = 4.3940

EPHEMERIS_TYPE = 0
CLASSIFICATION_TYPE = U
NORAD_CAT_ID   = 67662
ELEMENT_SET_NO = 999
REV_AT_EPOCH   = 289
BSTAR          = -.74344E-2
MEAN_MOTION_DOT = -.1682025E-1
MEAN_MOTION_DDOT = 0

CCSDS_OMM_VERS = 2.0
CREATION_DATE  = 
ORIGINATOR     = 

OBJECT_NAME    = STARLINK-36675
OBJECT_ID      = 2026-022R
CENTER_NAME    = EARTH
REF_FRAME      = TEME
TIME_SYSTEM    = UTC
MEAN_ELEMENT_THEORY = SGP/SGP4

EPOCH          = 2026-02-12T20:00:01.999008
MEAN_MOTION    = 15.87026427
ECCENTRICITY   = .0001504
INCLINATION    = 97.2814
RA_OF_ASC_NODE = 76.5793
ARG_OF_PERICENTER = 72.5792
MEAN_ANOMALY   = 0.6109

EPHEMERIS_TYPE = 0
CLASSIFICATION_TYPE = U
NORAD_CAT_ID   = 67663
ELEMENT_SET_NO = 999
REV_AT_EPOCH   = 289
BSTAR          = -.75398E-2
MEAN_MOTION_DOT = -.1687618E-1
MEAN_MOTION_DDOT = 0

CCSDS_OMM_VERS = 2.0
CREATION_DATE  = 
ORIGINATOR     = 

OBJECT_NAME    = STARLINK-36404
OBJECT_ID      = 2026-022S
CENTER_NAME    = EARTH
REF_FRAME      = TEME
TIME_SYSTEM    = UTC
MEAN_ELEMENT_THEORY = SGP/SGP4

EPOCH          = 2026-02-12T20:00:01.999008
MEAN_MOTION    = 15.87445146
ECCENTRICITY   = .0001535
INCLINATION    = 97.2805
RA_OF_ASC_NODE = 76.5824
ARG_OF_PERICENTER = 72.7209
MEAN_ANOMALY   = 10.1944

EPHEMERIS_TYPE = 0
CLASSIFICATION_TYPE = U
NORAD_CAT_ID   = 67664
ELEMENT_SET_NO = 999
REV_AT_EPOCH   = 286
BSTAR          = -.73375E-2
MEAN_MOTION_DOT = -.1678181E-1
MEAN_MOTION_DDOT = 0

CCSDS_OMM_VERS = 2.0
CREATION_DATE  = 
ORIGINATOR     = 

OBJECT_NAME    = STARLINK-36399
OBJECT_ID      = 2026-022T
CENTER_NAME    = EARTH
REF_FRAME      = TEME
TIME_SYSTEM    = UTC
MEAN_ELEMENT_THEORY = SGP/SGP4

EPOCH          = 2026-02-12T20:00:01.999008
MEAN_MOTION    = 15.87594854
ECCENTRICITY   = .0001519
INCLINATION    = 97.2804
RA_OF_ASC_NODE = 76.5845
ARG_OF_PERICENTER = 71.9103
MEAN_ANOMALY   = 14.5706

EPHEMERIS_TYPE = 0
CLASSIFICATION_TYPE = U
NORAD_CAT_ID   = 67665
ELEMENT_SET_NO = 999
REV_AT_EPOCH   = 286
BSTAR          = -.72717E-2
MEAN_MOTION_DOT = -.1675872E-1
MEAN_MOTION_DDOT = 0

CCSDS_OMM_VERS = 2.0
CREATION_DATE  = 
ORIGINATOR     = 

OBJECT_NAME    = STARLINK-36365
OBJECT_ID      = 2026-022U
CENTER_NAME    = EARTH
REF_FRAME      = TEME
TIME_SYSTEM    = UTC
MEAN_ELEMENT_THEORY = SGP/SGP4

EPOCH          = 2026-02-12T20:00:01.999008
MEAN_MOTION    = 15.87852177
ECCENTRICITY   = .0001551
INCLINATION    = 97.2805
RA_OF_ASC_NODE = 76.5873
ARG_OF_PERICENTER = 61.5608
MEAN_ANOMALY   = 30.4197

EPHEMERIS_TYPE = 0
CLASSIFICATION_TYPE = U
NORAD_CAT_ID   = 67666
ELEMENT_SET_NO = 999
REV_AT_EPOCH   = 289
BSTAR          = -.7343E-2
MEAN_MOTION_DOT = -.1709068E-1
MEAN_MOTION_DDOT = 0

CCSDS_OMM_VERS = 2.0
CREATION_DATE  = 
ORIGINATOR     = 

OBJECT_NAME    = STARLINK-36622
OBJECT_ID      = 2026-022V
CENTER_NAME    = EARTH
REF_FRAME      = TEME
TIME_SYSTEM    = UTC
MEAN_ELEMENT_THEORY = SGP/SGP4

EPOCH          = 2026-02-12T20:00:01.999008
MEAN_MOTION    = 15.88094103
ECCENTRICITY   = .0001489
INCLINATION    = 97.2801
RA_OF_ASC_NODE = 76.5893
ARG_OF_PERICENTER = 78.5130
MEAN_ANOMALY   = 19.2243

EPHEMERIS_TYPE = 0
CLASSIFICATION_TYPE = U
NORAD_CAT_ID   = 67667
ELEMENT_SET_NO = 999
REV_AT_EPOCH   = 289
BSTAR          = -.70703E-2
MEAN_MOTION_DOT = -.1671169E-1
MEAN_MOTION_DDOT = 0

CCSDS_OMM_VERS = 2.0
CREATION_DATE  = 
ORIGINATOR     = 

OBJECT_NAME    = STARLINK-36625
OBJECT_ID      = 2026-022W
CENTER_NAME    = EARTH
REF_FRAME      = TEME
TIME_SYSTEM    = UTC
MEAN_ELEMENT_THEORY = SGP/SGP4

EPOCH          = 2026-02-12T20:00:01.999008
MEAN_MOTION    = 15.88372735
ECCENTRICITY   = .0001544
INCLINATION    = 97.2796
RA_OF_ASC_NODE = 76.5919
ARG_OF_PERICENTER = 77.3705
MEAN_ANOMALY   = 26.6272

EPHEMERIS_TYPE = 0
CLASSIFICATION_TYPE = U
NORAD_CAT_ID   = 67668
ELEMENT_SET_NO = 999
REV_AT_EPOCH   = 289
BSTAR          = -.69315E-2
MEAN_MOTION_DOT = -.1662656E-1
MEAN_MOTION_DDOT = 0

CCSDS_OMM_VERS = 2.0
CREATION_DATE  = 
ORIGINATOR     = 

OBJECT_NAME    = STARLINK-36639
OBJECT_ID      = 2026-022X
CENTER_NAME    = EARTH
REF_FRAME      = TEME
TIME_SYSTEM    = UTC
MEAN_ELEMENT_THEORY = SGP/SGP4

EPOCH          = 2026-02-12T20:00:01.999008
MEAN_MOTION    = 15.88630751
ECCENTRICITY   = .0001592
INCLINATION    = 97.2797
RA_OF_ASC_NODE = 76.5951
ARG_OF_PERICENTER = 77.7050
MEAN_ANOMALY   = 32.2694

EPHEMERIS_TYPE = 0
CLASSIFICATION_TYPE = U
NORAD_CAT_ID   = 67669
ELEMENT_SET_NO = 999
REV_AT_EPOCH   = 289
BSTAR          = -.67697E-2
MEAN_MOTION_DOT = -.1647292E-1
MEAN_MOTION_DDOT = 0

CCSDS_OMM_VERS = 2.0
CREATION_DATE  = 
ORIGINATOR     = 

OBJECT_NAME    = STARLINK-36596
OBJECT_ID      = 2026-022Y
CENTER_NAME    = EARTH
REF_FRAME      = TEME
TIME_SYSTEM    = UTC
MEAN_ELEMENT_THEORY = SGP/SGP4

EPOCH          = 2026-02-12T20:00:01.999008
MEAN_MOTION    = 15.88857631
ECCENTRICITY   = .0001598
INCLINATION    = 97.2790
RA_OF_ASC_NODE = 76.5964
ARG_OF_PERICENTER = 76.3795
MEAN_ANOMALY   = 38.5401

EPHEMERIS_TYPE = 0
CLASSIFICATION_TYPE = U
NORAD_CAT_ID   = 67670
ELEMENT_SET_NO = 999
REV_AT_EPOCH   = 289
BSTAR          = -.67301E-2
MEAN_MOTION_DOT = -.165528E-1
MEAN_MOTION_DDOT = 0

CCSDS_OMM_VERS = 2.0
CREATION_DATE  = 
ORIGINATOR     = 

OBJECT_NAME    = STARLINK-36297
OBJECT_ID      = 2026-022Z
CENTER_NAME    = EARTH
REF_FRAME      = TEME
TIME_SYSTEM    = UTC
MEAN_ELEMENT_THEORY = SGP/SGP4

EPOCH          = 2026-02-12T20:00:01.999008
MEAN_MOTION    = 15.89204185
ECCENTRICITY   = .0001604
INCLINATION    = 97.2786
RA_OF_ASC_NODE = 76.6003
ARG_OF_PERICENTER = 73.5349
MEAN_ANOMALY   = 49.6380

EPHEMERIS_TYPE = 0
CLASSIFICATION_TYPE = U
NORAD_CAT_ID   = 67671
ELEMENT_SET_NO = 999
REV_AT_EPOCH   = 289
BSTAR          = -.65216E-2
MEAN_MOTION_DOT = -.1635175E-1
MEAN_MOTION_DDOT = 0

