STARLINK-36673          
1 67660U 26022N   26043.83335647 -.01686220  00000+0 -76746-2 0  9999
2 67660  97.2817  76.5757 0001436  79.5478 344.9045 15.86648574  2894
STARLINK-36674          
1 67661U 26022P   26043.83335647 -.01692414  00000+0 -76439-2 0  9991
2 67661  97.2819  76.5777 0001367  75.7242 352.5397 15.86816517  2898
STARLINK-36700          
1 67662U 26022Q   26043.83335647 -.01682025  00000+0 -74344-2 0  9992
2 67662  97.2814  76.5814 0001503  73.6170   4.3940 15.87233956  2892
STARLINK-36675          
1 67663U 26022R   26043.83335647 -.01687618  00000+0 -75398-2 0  9996
2 67663  97.2814  76.5793 0001504  72.5792   0.6109 15.87026427  2897
STARLINK-36404          
1 67664U 26022S   26043.83335647 -.01678181  00000+0 -73375-2 0  9995
2 67664  97.2805  76.5824 0001535  72.7209  10.1944 15.87445146  2865
STARLINK-36399          
1 67665U 26022T   26043.83335647 -.01675872  00000+0 -72717-2 0  9999
2 67665  97.2804  76.5845 0001519  71.9103  14.5706 15.87594854  2869
STARLINK-36365          
1 67666U 26022U   26043.83335647 -.01709068  00000+0 -73430-2 0  9998
2 67666  97.2805  76.5873 0001551  61.5608  30.4197 15.87852177  2892
STARLINK-36622          
1 67667U 26022V   26043.83335647 -.01671169  00000+0 -70703-2 0  9999
2 67667  97.2801  76.5893 0001489  78.5130  19.2243 15.88094103  2894
STARLINK-36625          
1 67668U 26022W   26043.83335647 -.01662656  00000+0 -69315-2 0  9998
2 67668  97.2796  76.5919 0001544  77.3705  26.6272 15.88372735  2898
STARLINK-36639          
1 67669U 26022X   26043.83335647 -.01647292  00000+0 -67697-2 0  9999
2 67669  97.2797  76.5951 0001592  77.7050  32.2694 15.88630751  2892
STARLINK-36596          
1 67670U 26022Y   26043.83335647 -.01655280  00000+0 -67301-2 0  9999
2 67670  97.2790  76.5964 0001598  76.3795  38.5401 15.88857631  2891
STARLINK-36297          
1 67671U 26022Z   26043.83335647 -.01635175  00000+0 -65216-2 0  9994
2 67671  97.2786  76.6003 0001604  73.5349  49.6380 15.89204185  2894
